{
    "links": {
        "self": "http://www.neowsapp.com/rest/v1/neo/3670397?api_key=iIulBulltgU6a56xZRHN4H3l9WmuAYTsLGpBGhQ2"
    },
    "id": "3670397",
    "neo_reference_id": "3670397",
    "name": "(2014 JH15)",
    "designation": "2014 JH15",
    "nasa_jpl_url": "http://ssd.jpl.nasa.gov/sbdb.cgi?sstr=3670397",
    "absolute_magnitude_h": 24.5,
    "estimated_diameter": {
        "kilometers": {
            "estimated_diameter_min": 0.0334622374,
            "estimated_diameter_max": 0.0748238376
        },
        "meters": {
            "estimated_diameter_min": 33.4622374455,
            "estimated_diameter_max": 74.8238376074
        },
        "miles": {
            "estimated_diameter_min": 0.0207924639,
            "estimated_diameter_max": 0.0464933628
        },
        "feet": {
            "estimated_diameter_min": 109.7842471007,
            "estimated_diameter_max": 245.4850393757
        }
    },
    "is_potentially_hazardous_asteroid": false,
    "close_approach_data": [
        {
            "close_approach_date": "2007-04-26",
            "close_approach_date_full": "2007-Apr-26 08:32",
            "epoch_date_close_approach": 1177576320000,
            "relative_velocity": {
                "kilometers_per_second": "21.4505020717",
                "kilometers_per_hour": "77221.8074580487",
                "miles_per_hour": "47982.6280841414"
            },
            "miss_distance": {
                "astronomical": "0.2672895358",
                "lunar": "103.9756294262",
                "kilometers": "39985945.228968746",
                "miles": "24846114.2356548548"
            },
            "orbiting_body": "Earth"
        },
        {
            "close_approach_date": "2014-03-04",
            "close_approach_date_full": "2014-Mar-04 07:21",
            "epoch_date_close_approach": 1393917660000,
            "relative_velocity": {
                "kilometers_per_second": "14.0501008378",
                "kilometers_per_hour": "50580.3630160501",
                "miles_per_hour": "31428.6705640563"
            },
            "miss_distance": {
                "astronomical": "0.0601004807",
                "lunar": "23.3790869923",
                "kilometers": "8990903.898696109",
                "miles": "5586688.6244559442"
            },
            "orbiting_body": "Mars"
        },
        {
            "close_approach_date": "2014-05-17",
            "close_approach_date_full": "2014-May-17 12:58",
            "epoch_date_close_approach": 1400331480000,
            "relative_velocity": {
                "kilometers_per_second": "13.2068423708",
                "kilometers_per_hour": "47544.6325349671",
                "miles_per_hour": "29542.3856992967"
            },
            "miss_distance": {
                "astronomical": "0.0206218678",
                "lunar": "8.0219065742",
                "kilometers": "3084987.498301586",
                "miles": "1916922.3425744468"
            },
            "orbiting_body": "Earth"
        },
        {
            "close_approach_date": "2095-09-27",
            "close_approach_date_full": "2095-Sep-27 12:46",
            "epoch_date_close_approach": 3967965960000,
            "relative_velocity": {
                "kilometers_per_second": "26.0451341885",
                "kilometers_per_hour": "93762.4830786619",
                "miles_per_hour": "58260.3606662941"
            },
            "miss_distance": {
                "astronomical": "0.4146841242",
                "lunar": "161.3121243138",
                "kilometers": "62035861.703135454",
                "miles": "38547297.0004151052"
            },
            "orbiting_body": "Earth"
        },
        {
            "close_approach_date": "2194-09-23",
            "close_approach_date_full": "2194-Sep-23 00:45",
            "epoch_date_close_approach": 7091714700000,
            "relative_velocity": {
                "kilometers_per_second": "22.5205118093",
                "kilometers_per_hour": "81073.8425135959",
                "miles_per_hour": "50376.1328662952"
            },
            "miss_distance": {
                "astronomical": "0.3044597999",
                "lunar": "118.4348621611",
                "kilometers": "45546537.565666213",
                "miles": "28301306.0943032194"
            },
            "orbiting_body": "Earth"
        }
    ],
    "orbital_data": {
        "orbit_id": "14",
        "orbit_determination_date": "2017-04-06 08:40:39",
        "first_observation_date": "2014-04-23",
        "last_observation_date": "2014-05-16",
        "data_arc_in_days": 23,
        "observations_used": 47,
        "orbit_uncertainty": "7",
        "minimum_orbit_intersection": ".0128448",
        "jupiter_tisserand_invariant": "3.288",
        "epoch_osculation": "2459000.5",
        "eccentricity": ".6244852069828857",
        "semi_major_axis": "2.31701557609894",
        "inclination": "1.525357376539011",
        "ascending_node_longitude": "205.8757128154452",
        "orbital_period": "1288.22539693598",
        "perihelion_distance": ".8700736244762234",
        "perihelion_argument": "79.06133289391374",
        "aphelion_distance": "3.763957527721657",
        "perihelion_time": "2459406.489123133852",
        "mean_anomaly": "246.5446336675118",
        "mean_motion": ".2794542017695453",
        "equinox": "J2000",
        "orbit_class": {
            "orbit_class_type": "APO",
            "orbit_class_description": "Near-Earth asteroid orbits which cross the Earth’s orbit similar to that of 1862 Apollo",
            "orbit_class_range": "a (semi-major axis) > 1.0 AU; q (perihelion) < 1.017 AU"
        }
    },
    "is_sentry_object": false
}